CZ-2C R/B               
1 54039U 22132E   25338.68848159  .00057455  00000+0  87266-3 0  9998
2 54039  97.2939 334.7371 0023734  83.3581 277.0373 15.54064872175584
GSLV R/B                
1 54149U 22138AN  25338.69571801  .00006389  00000+0  56331-3 0  9993
2 54149  87.3833 198.1671 0023378 132.1269 228.1954 14.96068033169723
XRISM                   
1 57800U 23137A   25338.63901171  .00008322  00000+0  49066-3 0  9997
2 57800  30.9996 177.8433 0007651 163.5018 196.5870 15.10222218123404
ACS3                    
1 59588U 24077B   25338.15813942  .00068182  00000+0  58546-1 0  9992
2 59588  97.2751 295.6785 0077693 356.8851   3.1816 13.84881818 80959
