CCSDS_OMM_VERS = 2.0
CREATION_DATE  = 
ORIGINATOR     = 

OBJECT_NAME    = CZ-2C R/B
OBJECT_ID      = 2022-132E
CENTER_NAME    = EARTH
REF_FRAME      = TEME
TIME_SYSTEM    = UTC
MEAN_ELEMENT_THEORY = SGP/SGP4

EPOCH          = 2025-12-04T16:31:24.809376
MEAN_MOTION    = 15.54064872
ECCENTRICITY   = .0023734
INCLINATION    = 97.2939
RA_OF_ASC_NODE = 334.7371
ARG_OF_PERICENTER = 83.3581
MEAN_ANOMALY   = 277.0373

EPHEMERIS_TYPE = 0
CLASSIFICATION_TYPE = U
NORAD_CAT_ID   = 54039
ELEMENT_SET_NO = 999
REV_AT_EPOCH   = 17558
BSTAR          = .87266E-3
MEAN_MOTION_DOT = .57455E-3
MEAN_MOTION_DDOT = 0

CCSDS_OMM_VERS = 2.0
CREATION_DATE  = 
ORIGINATOR     = 

OBJECT_NAME    = GSLV R/B
OBJECT_ID      = 2022-138AN
CENTER_NAME    = EARTH
REF_FRAME      = TEME
TIME_SYSTEM    = UTC
MEAN_ELEMENT_THEORY = SGP/SGP4

EPOCH          = 2025-12-04T16:41:50.036064
MEAN_MOTION    = 14.96068033
ECCENTRICITY   = .0023378
INCLINATION    = 87.3833
RA_OF_ASC_NODE = 198.1671
ARG_OF_PERICENTER = 132.1269
MEAN_ANOMALY   = 228.1954

EPHEMERIS_TYPE = 0
CLASSIFICATION_TYPE = U
NORAD_CAT_ID   = 54149
ELEMENT_SET_NO = 999
REV_AT_EPOCH   = 16972
BSTAR          = .56331E-3
MEAN_MOTION_DOT = .6389E-4
MEAN_MOTION_DDOT = 0

CCSDS_OMM_VERS = 2.0
CREATION_DATE  = 
ORIGINATOR     = 

OBJECT_NAME    = XRISM
OBJECT_ID      = 2023-137A
CENTER_NAME    = EARTH
REF_FRAME      = TEME
TIME_SYSTEM    = UTC
MEAN_ELEMENT_THEORY = SGP/SGP4

EPOCH          = 2025-12-04T15:20:10.611744
MEAN_MOTION    = 15.10222218
ECCENTRICITY   = .0007651
INCLINATION    = 30.9996
RA_OF_ASC_NODE = 177.8433
ARG_OF_PERICENTER = 163.5018
MEAN_ANOMALY   = 196.5870

EPHEMERIS_TYPE = 0
CLASSIFICATION_TYPE = U
NORAD_CAT_ID   = 57800
ELEMENT_SET_NO = 999
REV_AT_EPOCH   = 12340
BSTAR          = .49066E-3
MEAN_MOTION_DOT = .8322E-4
MEAN_MOTION_DDOT = 0

CCSDS_OMM_VERS = 2.0
CREATION_DATE  = 
ORIGINATOR     = 

OBJECT_NAME    = ACS3
OBJECT_ID      = 2024-077B
CENTER_NAME    = EARTH
REF_FRAME      = TEME
TIME_SYSTEM    = UTC
MEAN_ELEMENT_THEORY = SGP/SGP4

EPOCH          = 2025-12-04T03:47:43.245888
MEAN_MOTION    = 13.84881818
ECCENTRICITY   = .00776939
INCLINATION    = 97.2751
RA_OF_ASC_NODE = 295.6785
ARG_OF_PERICENTER = 356.8851
MEAN_ANOMALY   = 3.1816

EPHEMERIS_TYPE = 0
CLASSIFICATION_TYPE = U
NORAD_CAT_ID   = 59588
ELEMENT_SET_NO = 999
REV_AT_EPOCH   = 8095
BSTAR          = .58546365E-1
MEAN_MOTION_DOT = .68182E-3
MEAN_MOTION_DDOT = 0

